NORAD_CAT_ID,OBJECT_NAME,OBJECT_TYPE,EPOCH,MEAN_MOTION,ECCENTRICITY,INCLINATION,RA_OF_ASC_NODE,ARG_OF_PERICENTER,MEAN_ANOMALY,BSTAR,MEAN_MOTION_DOT,MEAN_MOTION_DDOT,TLE_LINE0,TLE_LINE1,TLE_LINE2,SEMIMAJOR_AXIS,PERIOD,APOGEE,PERIGEE,DECAYED
52467.0,STARLINK-3873,PAYLOAD,2023-10-31 11:18:52,15.08839736,0.0001706,53.2164,320.7917,86.6581,273.4607,-1.3158e-05,-4.97e-06,0.0,0 STARLINK-3873,1 52467U 22049S   23304.47143825 -.00000497  00000-0 -13158-4 0  9991,2 52467  53.2164 320.7917 0001706  86.6581 273.4607 15.08839736 82542,6917.881,95.438,540.926,538.566,0.0
52467.0,STARLINK-3873,PAYLOAD,2023-10-31 17:40:24,15.08838937,0.0001687,53.2164,319.6018,86.2314,273.8871,5.861e-06,-1.95e-06,0.0,0 STARLINK-3873,1 52467U 22049S   23304.73639934 -.00000195  00000-0  58610-5 0  9998,2 52467  53.2164 319.6018 0001687  86.2314 273.8871 15.08838937 82425,6917.884,95.438,540.916,538.582,0.0
52467.0,STARLINK-3873,PAYLOAD,2023-11-01 07:58:52,15.08845013,0.0001651,53.2166,316.9258,91.0625,269.0556,0.00031966,4.804e-05,0.0,0 STARLINK-3873,1 52467U 22049S   23305.33255756  .00004804  00000-0  31966-3 0  9994,2 52467  53.2166 316.9258 0001651  91.0625 269.0556 15.08845013 82513,6917.865,95.437,540.872,538.588,0.0
52467.0,STARLINK-3873,PAYLOAD,2023-11-01 17:31:11,15.08840464,0.0001703,53.2166,315.1432,106.5655,253.5524,0.00012294,1.669e-05,0.0,0 STARLINK-3873,1 52467U 22049S   23305.72999827  .00001669  00000-0  12294-3 0  9990,2 52467  53.2166 315.1432 0001703 106.5655 253.5524 15.08840464 82733,6917.879,95.438,540.922,538.566,0.0
52467.0,STARLINK-3873,PAYLOAD,2023-11-02 11:00:26,15.08847911,0.0001838,53.2171,311.8715,93.2295,266.8908,0.00020582,2.99e-05,0.0,0 STARLINK-3873,1 52467U 22049S   23306.45863603  .00002990  00000-0  20582-3 0  9990,2 52467  53.2171 311.8715 0001838  93.2295 266.8908 15.08847911 82688,6917.856,95.437,540.993,538.45,0.0
52467.0,STARLINK-3873,PAYLOAD,2023-11-02 17:21:58,15.08841663,0.0001685,53.2161,310.6798,86.1848,273.9337,5.6681e-05,6.14e-06,0.0,0 STARLINK-3873,1 52467U 22049S   23306.72359803  .00000614  00000-0  56681-4 0  9993,2 52467  53.2161 310.6798 0001685  86.1848 273.9337 15.08841663 82728,6917.875,95.437,540.906,538.575,0.0
52467.0,STARLINK-3873,PAYLOAD,2023-11-03 04:29:41,15.08836102,0.0002431,53.2173,308.5983,83.5434,276.5835,-4.1129e-05,-9.43e-06,0.0,0 STARLINK-3873,1 52467U 22049S   23307.18728417 -.00000943  00000-0 -41129-4 0  9993,2 52467  53.2173 308.5983 0002431  83.5434 276.5835 15.08836102 82954,6917.892,95.438,541.439,538.076,0.0
52467.0,STARLINK-3873,PAYLOAD,2023-11-03 10:51:14,15.08838459,0.0001997,53.2181,307.4096,85.3766,274.7454,-5.8882e-05,-1.225e-05,0.0,0 STARLINK-3873,1 52467U 22049S   23307.45224864 -.00001225  00000-0 -58882-4 0  9998,2 52467  53.2181 307.4096 0001997  85.3766 274.7454 15.08838459 82831,6917.885,95.438,541.132,538.369,0.0
52467.0,STARLINK-3873,PAYLOAD,2023-11-03 17:12:46,15.08840951,0.000202,53.2184,306.2206,86.762,273.3603,-5.341e-05,-1.138e-05,0.0,0 STARLINK-3873,1 52467U 22049S   23307.71720676 -.00001138  00000-0 -53410-4 0  9994,2 52467  53.2184 306.2206 0002020  86.7620 273.3603 15.08840951 82871,6917.877,95.437,541.14,538.345,0.0
52467.0,STARLINK-3873,PAYLOAD,2023-11-04 07:31:14,15.08843571,0.0001794,53.2175,303.5422,90.2889,269.8309,3.8017e-05,3.17e-06,0.0,0 STARLINK-3873,1 52467U 22049S   23308.31336444  .00000317  00000-0  38017-4 0  9999,2 52467  53.2175 303.5422 0001794  90.2889 269.8309 15.08843571 83128,6917.869,95.437,540.976,538.493,0.0
52467.0,STARLINK-3873,PAYLOAD,2023-11-04 17:03:32,15.08865301,0.000178,53.2179,301.7579,82.5548,277.5646,-0.0003394,-5.689e-05,0.0,0 STARLINK-3873,1 52467U 22049S   23308.71079613 -.00005689  00000-0 -33940-3 0  9993,2 52467  53.2179 301.7579 0001780  82.5548 277.5646 15.08865301 83187,6917.803,95.436,540.899,538.437,0.0
52467.0,STARLINK-3873,PAYLOAD,2023-11-05 05:46:38,15.088431,0.0001654,53.2162,299.3816,89.8835,270.2347,0.00018768,2.7e-05,0.0,0 STARLINK-3873,1 52467U 22049S   23309.24072327  .00002700  00000-0  18768-3 0  9997,2 52467  53.2162 299.3816 0001654  89.8835 270.2347 15.08843100 83264,6917.871,95.437,540.88,538.592,0.0
52467.0,STARLINK-3873,PAYLOAD,2023-11-05 08:57:24,15.08854421,0.0001893,53.2181,298.7838,93.6279,266.493,0.00022435,3.286e-05,0.0,0 STARLINK-3873,1 52467U 22049S   23309.37319514  .00003286  00000-0  22435-3 0  9999,2 52467  53.2181 298.7838 0001893  93.6279 266.4930 15.08854421 83287,6917.836,95.437,541.011,538.392,0.0
52467.0,STARLINK-3873,PAYLOAD,2023-11-05 16:54:20,15.08844337,0.0002107,53.2188,297.2972,104.4863,255.6363,0.00017515,2.501e-05,0.0,0 STARLINK-3873,1 52467U 22049S   23309.70440403  .00002501  00000-0  17515-3 0  9990,2 52467  53.2188 297.2972 0002107 104.4863 255.6363 15.08844337 83337,6917.867,95.437,541.19,538.275,0.0
52467.0,STARLINK-3873,PAYLOAD,2023-11-06 05:37:24,15.08871943,0.000197,53.2178,294.9202,106.5555,253.5653,0.00039557,6.018e-05,0.0,0 STARLINK-3873,1 52467U 22049S   23310.23430605  .00006018  00000-0  39557-3 0  9990,2 52467  53.2178 294.9202 0001970 106.5555 253.5653 15.08871943 83415,6917.783,95.436,541.011,538.285,0.0
52467.0,STARLINK-3873,PAYLOAD,2023-11-07 03:52:50,15.08815107,0.0001613,53.2166,290.7587,91.2173,268.9004,-0.00035409,-5.915e-05,0.0,0 STARLINK-3873,1 52467U 22049S   23311.16169677 -.00005915  00000-0 -35409-3 0  9990,2 52467  53.2166 290.7587 0001613  91.2173 268.9004 15.08815107 83557,6917.956,95.439,540.937,538.706,0.0
52467.0,STARLINK-3873,PAYLOAD,2023-11-07 08:38:59,15.08819725,0.0001437,53.2162,289.8629,98.6845,261.431,-0.00034695,-5.802e-05,0.0,0 STARLINK-3873,1 52467U 22049S   23311.36041200 -.00005802  00000-0 -34695-3 0  9994,2 52467  53.2162 289.8629 0001437  98.6845 261.4310 15.08819725 83581,6917.942,95.439,540.801,538.813,0.0
52467.0,STARLINK-3873,PAYLOAD,2023-11-08 03:43:36,15.08843906,0.000158,53.2168,286.296,100.8095,259.3075,5.7395e-05,6.26e-06,0.0,0 STARLINK-3873,1 52467U 22049S   23312.15528552  .00000626  00000-0  57395-4 0  9992,2 52467  53.2168 286.2960 0001580 100.8095 259.3075 15.08843906 83704,6917.868,95.437,540.826,538.64,0.0
52467.0,STARLINK-3873,PAYLOAD,2023-11-08 08:29:45,15.08859458,0.0001349,53.2166,285.4044,103.8466,256.2676,0.00016444,2.331e-05,0.0,0 STARLINK-3873,1 52467U 22049S   23312.35399694  .00002331  00000-0  16444-3 0  9991,2 52467  53.2166 285.4044 0001349 103.8466 256.2676 15.08859458 83739,6917.821,95.436,540.619,538.753,0.0
52467.0,STARLINK-3873,PAYLOAD,2023-11-09 03:34:24,15.08833849,0.0001464,53.2176,281.8372,107.0344,253.0809,0.00032506,4.888e-05,0.0,0 STARLINK-3873,1 52467U 22049S   23313.14889312  .00004888  00000-0  32506-3 0  9996,2 52467  53.2176 281.8372 0001464 107.0344 253.0809 15.08833849 83855,6917.899,95.438,540.777,538.751,0.0
52467.0,STARLINK-3873,PAYLOAD,2023-11-09 08:20:33,15.08843802,0.0001157,53.2168,280.9438,83.3126,276.7998,0.00033436,5.038e-05,0.0,0 STARLINK-3873,1 52467U 22049S   23313.34760974  .00005038  00000-0  33436-3 0  9991,2 52467  53.2168 280.9438 0001157  83.3126 276.7998 15.08843802 83729,6917.869,95.437,540.534,538.933,0.0
52467.0,STARLINK-3873,PAYLOAD,2023-11-10 03:25:09,15.08877657,0.0002926,53.2166,277.3785,150.0917,210.0243,0.0004947,7.602e-05,0.0,0 STARLINK-3873,1 52467U 22049S   23314.14246897  .00007602  00000-0  49470-3 0  9997,2 52467  53.2166 277.3785 0002926 150.0917 210.0243 15.08877657 84008,6917.765,95.435,541.654,537.606,0.0
52467.0,STARLINK-3873,PAYLOAD,2023-11-10 05:00:34,15.08830361,0.0001435,53.2163,277.0793,97.7003,262.4152,-0.00028283,-4.785e-05,0.0,0 STARLINK-3873,1 52467U 22049S   23314.20873365 -.00004785  00000-0 -28283-3 0  9990,2 52467  53.2163 277.0793 0001435  97.7003 262.4152 15.08830361 84010,6917.91,95.438,540.768,538.782,0.0
52467.0,STARLINK-3873,PAYLOAD,2023-11-10 14:32:54,15.08799391,0.000198,53.2165,275.295,91.0166,269.1053,-0.00071031,-0.00011563,0.0,0 STARLINK-3873,1 52467U 22049S   23314.60618949 -.00011563  00000-0 -71031-3 0  9990,2 52467  53.2165 275.2950 0001980  91.0166 269.1053 15.08799391 83918,6918.005,95.44,541.239,538.5,0.0
52467.0,STARLINK-3873,PAYLOAD,2023-11-11 03:15:58,15.08840988,0.0001451,53.2166,272.9134,92.9749,267.1409,0.00012917,1.768e-05,0.0,0 STARLINK-3873,1 52467U 22049S   23315.13608958  .00001768  00000-0  12917-3 0  9990,2 52467  53.2166 272.9134 0001451  92.9749 267.1409 15.08840988 84156,6917.877,95.437,540.746,538.739,0.0
52467.0,STARLINK-3873,PAYLOAD,2023-11-11 14:23:40,15.08839648,0.0001266,53.2168,270.8332,89.5207,270.593,8.8016e-06,-1.48e-06,0.0,0 STARLINK-3873,1 52467U 22049S   23315.59977054 -.00000148  00000-0  88016-5 0  9993,2 52467  53.2168 270.8332 0001266  89.5207 270.5930 15.08839648 84068,6917.881,95.438,540.622,538.871,0.0
52467.0,STARLINK-3873,PAYLOAD,2023-11-11 20:45:13,15.08834989,0.0001444,53.2162,269.6442,92.8459,267.2698,6.4579e-05,7.4e-06,0.0,0 STARLINK-3873,1 52467U 22049S   23315.86473499  .00000740  00000-0  64579-4 0  9991,2 52467  53.2162 269.6442 0001444  92.8459 267.2698 15.08834989 84106,6917.896,95.438,540.76,538.762,0.0
52467.0,STARLINK-3873,PAYLOAD,2023-11-12 03:06:45,15.0883655,0.0001595,53.2174,268.4546,97.2275,262.8898,0.00025784,3.818e-05,0.0,0 STARLINK-3873,1 52467U 22049S   23316.12969287  .00003818  00000-0  25784-3 0  9999,2 52467  53.2174 268.4546 0001595  97.2275 262.8898 15.08836550 84304,6917.891,95.438,540.859,538.653,0.0
52467.0,STARLINK-3873,PAYLOAD,2023-11-12 04:42:08,15.08847452,0.0001409,53.2175,268.1566,83.7044,276.4108,0.00020739,3.015e-05,0.0,0 STARLINK-3873,1 52467U 22049S   23316.19592790  .00003015  00000-0  20739-3 0  9991,2 52467  53.2175 268.1566 0001409  83.7044 276.4108 15.08847452 84311,6917.858,95.437,540.697,538.748,0.0
52467.0,STARLINK-3873,PAYLOAD,2023-11-12 14:14:26,15.08859314,0.0001569,53.2178,266.3732,87.6903,272.4269,-0.00021332,-3.683e-05,0.0,0 STARLINK-3873,1 52467U 22049S   23316.59336524 -.00003683  00000-0 -21332-3 0  9999,2 52467  53.2178 266.3732 0001569  87.6903 272.4269 15.08859314 84216,6917.821,95.436,540.772,538.601,0.0
